{"fetched_at":"2026-03-29T16:36:15Z","count":15609,"tles":[{"name":"STARLINK-1958","line1":"1 47559U 21009M   26087.68280471  .00129360  00000+0  98677-3 0  9991","line2":"2 47559  53.0425 227.6671 0007600  22.2071 337.9274 15.71302640284625","category":"Starlink"}]}